start=new Date('2023-06-23T00:00:00.000Z').valueOf();
sats=[{"LAUNCH_DATE":"2023-03-17","OBJECT_NAME":"STARLINK-5898","NORAD_CAT_ID":"55929","APOAPSIS":"574.329","MEAN_MOTION_DOT":"-0.00001401","COUNTRY_CODE":"US","TIME_SYSTEM":"UTC","PERIAPSIS":"569.764","GP_ID":"234451484","REV_AT_EPOCH":"1529","PERIOD":"96.107","RA_OF_ASC_NODE":"284.5767","ELEMENT_SET_NO":"999","TLE_LINE1":"1 55929U 23037R   23173.05938342 -.00001401  00000-0 -10960-3 0  9992","DECAY_DATE":null,"REF_FRAME":"TEME","CLASSIFICATION_TYPE":"U","SEMIMAJOR_AXIS":"6950.182","MEAN_ANOMALY":"90.3834","EPOCH":"2023-06-22T01:25:30.727488","CENTER_NAME":"EARTH","SITE":"AFWTR","MEAN_MOTION":"14.98333632","OBJECT_ID":"2023-037R","TLE_LINE2":"2 55929  69.9998 284.5767 0003284 269.6949  90.3834 14.98333632 15299","ECCENTRICITY":"0.00032840","FILE":"3939637","RCS_SIZE":"LARGE","BSTAR":"-0.00010960000000","INCLINATION":"69.9998","MEAN_ELEMENT_THEORY":"SGP4","MEAN_MOTION_DDOT":"0.0000000000000","ARG_OF_PERICENTER":"269.6949","EPHEMERIS_TYPE":"0","OBJECT_TYPE":"PAYLOAD"},{"RCS_SIZE":"LARGE","BSTAR":"-0.00954040000000","INCLINATION":"69.9998","MEAN_ELEMENT_THEORY":"SGP4","ARG_OF_PERICENTER":"275.1411","MEAN_MOTION_DDOT":"0.0000000000000","OBJECT_TYPE":"PAYLOAD","EPHEMERIS_TYPE":"0","MEAN_ANOMALY":"123.4768","EPOCH":"2023-06-22T14:00:01.000224","CENTER_NAME":"EARTH","SITE":"AFWTR","OBJECT_ID":"2023-037S","MEAN_MOTION":"15.65218798","TLE_LINE2":"2 55930  69.9998 268.8937 0003664 275.1411 123.4768 15.65218798 15725","FILE":"3939821","ECCENTRICITY":"0.00036640","PERIOD":"92.000","RA_OF_ASC_NODE":"268.8937","TLE_LINE1":"1 55930U 23037S   23173.58334491 -.00855562  00000-0 -95404-2 0  9997","DECAY_DATE":null,"ELEMENT_SET_NO":"999","REF_FRAME":"TEME","CLASSIFICATION_TYPE":"U","SEMIMAJOR_AXIS":"6750.747","LAUNCH_DATE":"2023-03-17","OBJECT_NAME":"STARLINK-5896","NORAD_CAT_ID":"55930","APOAPSIS":"375.085","MEAN_MOTION_DOT":"-0.00855562","TIME_SYSTEM":"UTC","COUNTRY_CODE":"US","PERIAPSIS":"370.138","GP_ID":"234455286","REV_AT_EPOCH":"1572"},{"SEMIMAJOR_AXIS":"6950.171","CLASSIFICATION_TYPE":"U","REF_FRAME":"TEME","TLE_LINE1":"1 55931U 23037T   23173.71863205 -.00000260  00000-0 -14019-4 0  9995","ELEMENT_SET_NO":"999","DECAY_DATE":null,"RA_OF_ASC_NODE":"282.8644","PERIOD":"96.107","REV_AT_EPOCH":"1539","GP_ID":"234464059","PERIAPSIS":"569.559","TIME_SYSTEM":"UTC","COUNTRY_CODE":"US","MEAN_MOTION_DOT":"-0.00000260","APOAPSIS":"574.513","NORAD_CAT_ID":"55931","OBJECT_NAME":"STARLINK-5897","LAUNCH_DATE":"2023-03-17","OBJECT_TYPE":"PAYLOAD","EPHEMERIS_TYPE":"0","MEAN_MOTION_DDOT":"0.0000000000000","ARG_OF_PERICENTER":"269.6751","MEAN_ELEMENT_THEORY":"SGP4","INCLINATION":"69.9997","BSTAR":"-0.00001401900000","RCS_SIZE":"LARGE","ECCENTRICITY":"0.00035640","FILE":"3940197","TLE_LINE2":"2 55931  69.9997 282.8644 0003564 269.6751  90.4000 14.98337004 15392","OBJECT_ID":"2023-037T","MEAN_MOTION":"14.98337004","SITE":"AFWTR","CENTER_NAME":"EARTH","EPOCH":"2023-06-22T17:14:49.809120","MEAN_ANOMALY":"90.4000"},{"MEAN_ANOMALY":"86.4525","CENTER_NAME":"EARTH","EPOCH":"2023-06-22T16:43:42.313728","OBJECT_ID":"2023-037U","MEAN_MOTION":"15.69931504","SITE":"AFWTR","ECCENTRICITY":"0.00036680","FILE":"3940198","TLE_LINE2":"2 55932  69.9976 268.5267 0003668 273.6251  86.4525 15.69931504 15747","RCS_SIZE":"LARGE","INCLINATION":"69.9976","BSTAR":"0.00001201500000","MEAN_ELEMENT_THEORY":"SGP4","MEAN_MOTION_DDOT":"0.0000000000000","ARG_OF_PERICENTER":"273.6251","OBJECT_TYPE":"PAYLOAD","EPHEMERIS_TYPE":"0","OBJECT_NAME":"STARLINK-5848","NORAD_CAT_ID":"55932","LAUNCH_DATE":"2023-03-17","APOAPSIS":"361.566","MEAN_MOTION_DOT":"0.00001232","PERIAPSIS":"356.624","COUNTRY_CODE":"US","TIME_SYSTEM":"UTC","REV_AT_EPOCH":"1574","GP_ID":"234464578","RA_OF_ASC_NODE":"268.5267","PERIOD":"91.724","REF_FRAME":"TEME","TLE_LINE1":"1 55932U 23037U   23173.69701752  .00001232  00000-0  12015-4 0  9993","DECAY_DATE":null,"ELEMENT_SET_NO":"999","CLASSIFICATION_TYPE":"U","SEMIMAJOR_AXIS":"6737.230"},{"EPHEMERIS_TYPE":"0","OBJECT_TYPE":"PAYLOAD","MEAN_MOTION_DDOT":"0.0000000000000","ARG_OF_PERICENTER":"274.8664","MEAN_ELEMENT_THEORY":"SGP4","BSTAR":"-0.00956050000000","INCLINATION":"69.9999","RCS_SIZE":"LARGE","TLE_LINE2":"2 55933  69.9999 268.8968 0003740 274.8664 121.1192 15.65191712 15726","FILE":"3939805","ECCENTRICITY":"0.00037400","SITE":"AFWTR","MEAN_MOTION":"15.65191712","OBJECT_ID":"2023-037V","EPOCH":"2023-06-22T14:00:01.000224","CENTER_NAME":"EARTH","MEAN_ANOMALY":"121.1192","SEMIMAJOR_AXIS":"6750.824","CLASSIFICATION_TYPE":"U","TLE_LINE1":"1 55933U 23037V   23173.58334491 -.00856379  00000-0 -95605-2 0  9990","DECAY_DATE":null,"ELEMENT_SET_NO":"999","REF_FRAME":"TEME","PERIOD":"92.002","RA_OF_ASC_NODE":"268.8968","GP_ID":"234455302","REV_AT_EPOCH":"1572","TIME_SYSTEM":"UTC","COUNTRY_CODE":"US","PERIAPSIS":"370.165","MEAN_MOTION_DOT":"-0.00856379","APOAPSIS":"375.214","LAUNCH_DATE":"2023-03-17","NORAD_CAT_ID":"55933","OBJECT_NAME":"STARLINK-5852"},{"INCLINATION":"69.9998","BSTAR":"-0.00952700000000","MEAN_ELEMENT_THEORY":"SGP4","RCS_SIZE":"LARGE","OBJECT_TYPE":"PAYLOAD","EPHEMERIS_TYPE":"0","MEAN_MOTION_DDOT":"0.0000000000000","ARG_OF_PERICENTER":"275.9132","CENTER_NAME":"EARTH","EPOCH":"2023-06-22T14:00:01.000224","MEAN_ANOMALY":"126.6470","OBJECT_ID":"2023-037W","MEAN_MOTION":"15.65263152","SITE":"AFWTR","ECCENTRICITY":"0.00036680","FILE":"3939805","TLE_LINE2":"2 55934  69.9998 268.8890 0003668 275.9132 126.6470 15.65263152 15728","CLASSIFICATION_TYPE":"U","RA_OF_ASC_NODE":"268.8890","PERIOD":"91.997","REF_FRAME":"TEME","TLE_LINE1":"1 55934U 23037W   23173.58334491 -.00855851  00000-0 -95270-2 0  9993","DECAY_DATE":null,"ELEMENT_SET_NO":"999","SEMIMAJOR_AXIS":"6750.619","NORAD_CAT_ID":"55934","OBJECT_NAME":"STARLINK-5927","LAUNCH_DATE":"2023-03-17","PERIAPSIS":"370.008","TIME_SYSTEM":"UTC","COUNTRY_CODE":"US","REV_AT_EPOCH":"1572","GP_ID":"234455303","APOAPSIS":"374.960","MEAN_MOTION_DOT":"-0.00855851"},{"CLASSIFICATION_TYPE":"U","TLE_LINE1":"1 55935U 23037X   23173.58334491 -.00860207  00000-0 -95930-2 0  9998","DECAY_DATE":null,"ELEMENT_SET_NO":"999","REF_FRAME":"TEME","PERIOD":"91.999","RA_OF_ASC_NODE":"268.8930","SEMIMAJOR_AXIS":"6750.713","LAUNCH_DATE":"2023-03-17","NORAD_CAT_ID":"55935","OBJECT_NAME":"STARLINK-5920","GP_ID":"234454808","REV_AT_EPOCH":"1572","TIME_SYSTEM":"UTC","COUNTRY_CODE":"US","PERIAPSIS":"370.077","MEAN_MOTION_DOT":"-0.00860207","APOAPSIS":"375.078","MEAN_ELEMENT_THEORY":"SGP4","BSTAR":"-0.00959300000000","INCLINATION":"69.9998","RCS_SIZE":"LARGE","EPHEMERIS_TYPE":"0","OBJECT_TYPE":"PAYLOAD","ARG_OF_PERICENTER":"274.7403","MEAN_MOTION_DDOT":"0.0000000000000","EPOCH":"2023-06-22T14:00:01.000224","CENTER_NAME":"EARTH","MEAN_ANOMALY":"124.5322","TLE_LINE2":"2 55935  69.9998 268.8930 0003704 274.7403 124.5322 15.65230615 15724","FILE":"3939805","ECCENTRICITY":"0.00037040","SITE":"AFWTR","MEAN_MOTION":"15.65230615","OBJECT_ID":"2023-037X"},{"OBJECT_TYPE":"PAYLOAD","EPHEMERIS_TYPE":"0","ARG_OF_PERICENTER":"272.9163","MEAN_MOTION_DDOT":"0.0000000000000","INCLINATION":"69.9982","BSTAR":"0.00000509690000","MEAN_ELEMENT_THEORY":"SGP4","RCS_SIZE":"LARGE","MEAN_MOTION":"15.69930643","OBJECT_ID":"2023-037Y","SITE":"AFWTR","FILE":"3939869","ECCENTRICITY":"0.00036420","TLE_LINE2":"2 55936  69.9982 269.4235 0003642 272.9163  87.1616 15.69930643 15695","CENTER_NAME":"EARTH","EPOCH":"2023-06-22T09:05:05.990784","MEAN_ANOMALY":"87.1616","SEMIMAJOR_AXIS":"6737.232","CLASSIFICATION_TYPE":"U","RA_OF_ASC_NODE":"269.4235","PERIOD":"91.724","REF_FRAME":"TEME","TLE_LINE1":"1 55936U 23037Y   23173.37854156  .00000400  00000-0  50969-5 0  9996","ELEMENT_SET_NO":"999","DECAY_DATE":null,"PERIAPSIS":"356.644","TIME_SYSTEM":"UTC","COUNTRY_CODE":"US","REV_AT_EPOCH":"1569","GP_ID":"234456574","APOAPSIS":"361.551","MEAN_MOTION_DOT":"0.00000400","OBJECT_NAME":"STARLINK-5882","NORAD_CAT_ID":"55936","LAUNCH_DATE":"2023-03-17"},{"LAUNCH_DATE":"2023-03-17","OBJECT_NAME":"STARLINK-5913","NORAD_CAT_ID":"55937","GP_ID":"234456659","REV_AT_EPOCH":"1572","COUNTRY_CODE":"US","TIME_SYSTEM":"UTC","PERIAPSIS":"370.054","MEAN_MOTION_DOT":"-0.00856708","APOAPSIS":"375.074","CLASSIFICATION_TYPE":"U","TLE_LINE1":"1 55937U 23037Z   23173.58334491 -.00856708  00000-0 -95480-2 0  9991","DECAY_DATE":null,"ELEMENT_SET_NO":"999","REF_FRAME":"TEME","PERIOD":"91.999","RA_OF_ASC_NODE":"268.8922","SEMIMAJOR_AXIS":"6750.699","EPOCH":"2023-06-22T14:00:01.000224","CENTER_NAME":"EARTH","MEAN_ANOMALY":"125.4791","TLE_LINE2":"2 55937  69.9997 268.8922 0003718 274.4517 125.4791 15.65235214 15724","ECCENTRICITY":"0.00037180","FILE":"3939869","SITE":"AFWTR","OBJECT_ID":"2023-037Z","MEAN_MOTION":"15.65235214","MEAN_ELEMENT_THEORY":"SGP4","BSTAR":"-0.00954800000000","INCLINATION":"69.9997","RCS_SIZE":"LARGE","OBJECT_TYPE":"PAYLOAD","EPHEMERIS_TYPE":"0","MEAN_MOTION_DDOT":"0.0000000000000","ARG_OF_PERICENTER":"274.4517"},{"LAUNCH_DATE":"2023-03-17","NORAD_CAT_ID":"55938","OBJECT_NAME":"STARLINK-5909","GP_ID":"234456583","REV_AT_EPOCH":"1572","COUNTRY_CODE":"US","TIME_SYSTEM":"UTC","PERIAPSIS":"370.044","MEAN_MOTION_DOT":"-0.00859740","APOAPSIS":"375.030","CLASSIFICATION_TYPE":"U","ELEMENT_SET_NO":"999","TLE_LINE1":"1 55938U 23037AA  23173.58334491 -.00859740  00000-0 -95819-2 0  9997","DECAY_DATE":null,"REF_FRAME":"TEME","PERIOD":"91.998","RA_OF_ASC_NODE":"268.8913","SEMIMAJOR_AXIS":"6750.672","EPOCH":"2023-06-22T14:00:01.000224","CENTER_NAME":"EARTH","MEAN_ANOMALY":"125.8846","TLE_LINE2":"2 55938  69.9998 268.8913 0003693 274.7027 125.8846 15.65244632 15726","FILE":"3939871","ECCENTRICITY":"0.00036930","SITE":"AFWTR","OBJECT_ID":"2023-037AA","MEAN_MOTION":"15.65244632","MEAN_ELEMENT_THEORY":"SGP4","BSTAR":"-0.00958190000000","INCLINATION":"69.9998","RCS_SIZE":"LARGE","OBJECT_TYPE":"PAYLOAD","EPHEMERIS_TYPE":"0","ARG_OF_PERICENTER":"274.7027","MEAN_MOTION_DDOT":"0.0000000000000"}];
